<?xml version='1.0' encoding='utf-8'?>
<q:quakeml xmlns="http://quakeml.org/xmlns/bed/1.2" xmlns:q="http://quakeml.org/xmlns/quakeml/1.2" xmlns:ns0="http://webservices.ingv.it/fdsnws/event/1">
  <eventParameters publicID="smi:local/aa1ab3f2-77cb-4a09-bc7d-7bf0d9966d89">
    <event publicID="smi:webservices.ingv.it/fdsnws/event/1/query?eventId=36365741">
      <preferredOriginID>smi:webservices.ingv.it/fdsnws/event/1/query?originId=121687631</preferredOriginID>
      <preferredMagnitudeID>smi:webservices.ingv.it/fdsnws/event/1/query?magnitudeId=130985731</preferredMagnitudeID>
      <type>earthquake</type>
      <description>
        <text>Campi Flegrei</text>
        <type>region name</type>
      </description>
      <creationInfo>
        <agencyID>INGV</agencyID>
        <author>hew10_mole#MOD_EQASSEMBLE</author>
        <creationTime>2023-10-02T20:08:48.000000Z</creationTime>
        <ns0:id_locator>532208</ns0:id_locator>
      </creationInfo>
      <origin publicID="smi:webservices.ingv.it/fdsnws/event/1/query?originId=121687631">
        <time>
          <value>2023-10-02T20:08:26.650000Z</value>
        </time>
        <latitude>
          <value>40.830167</value>
        </latitude>
        <longitude>
          <value>14.1495</value>
        </longitude>
        <depth>
          <value>2610.0</value>
          <uncertainty>100.0</uncertainty>
        </depth>
        <depthType>from location</depthType>
        <methodID>smi:webservices.ingv.it/fdsnws/event/1/query?methodId=271</methodID>
        <earthModelID>smi:webservices.ingv.it/fdsnws/event/1/query?earthModelId=71</earthModelID>
        <quality>
          <associatedPhaseCount>1</associatedPhaseCount>
          <usedPhaseCount>1</usedPhaseCount>
          <associatedStationCount>0</associatedStationCount>
          <usedStationCount>0</usedStationCount>
          <standardError>0.07</standardError>
          <azimuthalGap>120.0</azimuthalGap>
        </quality>
        <type>hypocenter</type>
        <evaluationMode>manual</evaluationMode>
        <evaluationStatus>reviewed</evaluationStatus>
        <creationInfo>
          <agencyID>INGV</agencyID>
          <author>SURVEY-INGV-OV</author>
          <creationTime>2023-10-02T20:27:56.000000Z</creationTime>
          <version>200</version>
          <ns0:quality>DD</ns0:quality>
        </creationInfo>
        <originUncertainty>
          <preferredDescription>horizontal uncertainty</preferredDescription>
          <horizontalUncertainty>200.0</horizontalUncertainty>
          <confidenceLevel>68.0</confidenceLevel>
        </originUncertainty>
      </origin>
      <magnitude publicID="smi:webservices.ingv.it/fdsnws/event/1/query?magnitudeId=130985731">
        <mag>
          <value>4.0</value>
          <uncertainty>0.3</uncertainty>
        </mag>
        <type>Md</type>
        <originID>smi:webservices.ingv.it/fdsnws/event/1/query?originId=121687631</originID>
        <methodID>smi:webservices.ingv.it/fdsnws/event/1/query?methodId=271</methodID>
        <creationInfo>
          <agencyID>INGV</agencyID>
          <author>SURVEY-INGV-OV#SiSmi</author>
          <creationTime>2023-10-02T20:27:56.000000Z</creationTime>
          <ns0:mag_quality>A</ns0:mag_quality>
        </creationInfo>
      </magnitude>
      <pick publicID="smi:webservices.ingv.it/fdsnws/event/1/query?pickId=695462481">
        <time>
          <value>2023-10-02T20:08:27.920000Z</value>
          <uncertainty>0.1</uncertainty>
        </time>
        <waveformID networkCode="IV" stationCode="CSFT" locationCode="" channelCode="HHZ"></waveformID>
        <methodID>smi:webservices.ingv.it/fdsnws/event/1/query?methodID=9</methodID>
        <onset>questionable</onset>
        <phaseHint>P</phaseHint>
        <polarity>negative</polarity>
        <evaluationMode>manual</evaluationMode>
        <creationInfo>
          <agencyID>INGV </agencyID>
          <author>SURVEY-INGV</author>
          <creationTime>2023-10-02T20:22:53.000000Z</creationTime>
        </creationInfo>
      </pick>
      <pick publicID="smi:webservices.ingv.it/fdsnws/event/1/query?pickId=695462501">
        <time>
          <value>2023-10-02T20:08:28.240000Z</value>
          <uncertainty>0.1</uncertainty>
        </time>
        <waveformID networkCode="IV" stationCode="CPOZ" locationCode="" channelCode="HNZ"></waveformID>
        <methodID>smi:webservices.ingv.it/fdsnws/event/1/query?methodID=9</methodID>
        <onset>questionable</onset>
        <phaseHint>P</phaseHint>
        <polarity>negative</polarity>
        <evaluationMode>manual</evaluationMode>
        <creationInfo>
          <agencyID>INGV </agencyID>
          <author>SURVEY-INGV</author>
          <creationTime>2023-10-02T20:22:53.000000Z</creationTime>
        </creationInfo>
      </pick>
      <pick publicID="smi:webservices.ingv.it/fdsnws/event/1/query?pickId=695462521">
        <time>
          <value>2023-10-02T20:08:28.380000Z</value>
          <uncertainty>0.1</uncertainty>
        </time>
        <waveformID networkCode="IX" stationCode="NAPI" locationCode="01" channelCode="HNZ"></waveformID>
        <methodID>smi:webservices.ingv.it/fdsnws/event/1/query?methodID=9</methodID>
        <onset>questionable</onset>
        <phaseHint>P</phaseHint>
        <polarity>positive</polarity>
        <evaluationMode>manual</evaluationMode>
        <creationInfo>
          <agencyID>INGV </agencyID>
          <author>SURVEY-INGV</author>
          <creationTime>2023-10-02T20:22:53.000000Z</creationTime>
        </creationInfo>
      </pick>
      <pick publicID="smi:webservices.ingv.it/fdsnws/event/1/query?pickId=695462491">
        <time>
          <value>2023-10-02T20:08:28.560000Z</value>
          <uncertainty>0.6</uncertainty>
        </time>
        <waveformID networkCode="IV" stationCode="CSFT" locationCode="" channelCode="HHZ"></waveformID>
        <methodID>smi:webservices.ingv.it/fdsnws/event/1/query?methodID=9</methodID>
        <onset>questionable</onset>
        <phaseHint>S</phaseHint>
        <polarity>undecidable</polarity>
        <evaluationMode>manual</evaluationMode>
        <creationInfo>
          <agencyID>INGV </agencyID>
          <author>SURVEY-INGV</author>
          <creationTime>2023-10-02T20:22:53.000000Z</creationTime>
        </creationInfo>
      </pick>
      <pick publicID="smi:webservices.ingv.it/fdsnws/event/1/query?pickId=695462541">
        <time>
          <value>2023-10-02T20:08:28.740000Z</value>
          <uncertainty>0.1</uncertainty>
        </time>
        <waveformID networkCode="IV" stationCode="CFMN" locationCode="" channelCode="HNZ"></waveformID>
        <methodID>smi:webservices.ingv.it/fdsnws/event/1/query?methodID=9</methodID>
        <onset>questionable</onset>
        <phaseHint>P</phaseHint>
        <polarity>undecidable</polarity>
        <evaluationMode>manual</evaluationMode>
        <creationInfo>
          <agencyID>INGV </agencyID>
          <author>SURVEY-INGV</author>
          <creationTime>2023-10-02T20:22:53.000000Z</creationTime>
        </creationInfo>
      </pick>
      <pick publicID="smi:webservices.ingv.it/fdsnws/event/1/query?pickId=695462561">
        <time>
          <value>2023-10-02T20:08:29.270000Z</value>
          <uncertainty>0.1</uncertainty>
        </time>
        <waveformID networkCode="IV" stationCode="CMIS" locationCode="" channelCode="HHZ"></waveformID>
        <methodID>smi:webservices.ingv.it/fdsnws/event/1/query?methodID=9</methodID>
        <onset>questionable</onset>
        <phaseHint>P</phaseHint>
        <polarity>negative</polarity>
        <evaluationMode>manual</evaluationMode>
        <creationInfo>
          <agencyID>INGV </agencyID>
          <author>SURVEY-INGV</author>
          <creationTime>2023-10-02T20:22:53.000000Z</creationTime>
        </creationInfo>
      </pick>
      <pick publicID="smi:webservices.ingv.it/fdsnws/event/1/query?pickId=695462531">
        <time>
          <value>2023-10-02T20:08:29.520000Z</value>
          <uncertainty>0.6</uncertainty>
        </time>
        <waveformID networkCode="IX" stationCode="NAPI" locationCode="01" channelCode="HNZ"></waveformID>
        <methodID>smi:webservices.ingv.it/fdsnws/event/1/query?methodID=9</methodID>
        <onset>questionable</onset>
        <phaseHint>S</phaseHint>
        <polarity>undecidable</polarity>
        <evaluationMode>manual</evaluationMode>
        <creationInfo>
          <agencyID>INGV </agencyID>
          <author>SURVEY-INGV</author>
          <creationTime>2023-10-02T20:22:53.000000Z</creationTime>
        </creationInfo>
      </pick>
      <pick publicID="smi:webservices.ingv.it/fdsnws/event/1/query?pickId=695462511">
        <time>
          <value>2023-10-02T20:08:29.600000Z</value>
          <uncertainty>0.6</uncertainty>
        </time>
        <waveformID networkCode="IV" stationCode="CPOZ" locationCode="" channelCode="HNZ"></waveformID>
        <methodID>smi:webservices.ingv.it/fdsnws/event/1/query?methodID=9</methodID>
        <onset>questionable</onset>
        <phaseHint>S</phaseHint>
        <polarity>undecidable</polarity>
        <evaluationMode>manual</evaluationMode>
        <creationInfo>
          <agencyID>INGV </agencyID>
          <author>SURVEY-INGV</author>
          <creationTime>2023-10-02T20:22:53.000000Z</creationTime>
        </creationInfo>
      </pick>
      <pick publicID="smi:webservices.ingv.it/fdsnws/event/1/query?pickId=695462551">
        <time>
          <value>2023-10-02T20:08:30.180000Z</value>
          <uncertainty>0.6</uncertainty>
        </time>
        <waveformID networkCode="IV" stationCode="CFMN" locationCode="" channelCode="HNZ"></waveformID>
        <methodID>smi:webservices.ingv.it/fdsnws/event/1/query?methodID=9</methodID>
        <onset>questionable</onset>
        <phaseHint>S</phaseHint>
        <polarity>undecidable</polarity>
        <evaluationMode>manual</evaluationMode>
        <creationInfo>
          <agencyID>INGV </agencyID>
          <author>SURVEY-INGV</author>
          <creationTime>2023-10-02T20:22:53.000000Z</creationTime>
        </creationInfo>
      </pick>
      <pick publicID="smi:webservices.ingv.it/fdsnws/event/1/query?pickId=695462571">
        <time>
          <value>2023-10-02T20:08:31.580000Z</value>
          <uncertainty>0.1</uncertainty>
        </time>
        <waveformID networkCode="IV" stationCode="OVO" locationCode="" channelCode="HHZ"></waveformID>
        <methodID>smi:webservices.ingv.it/fdsnws/event/1/query?methodID=9</methodID>
        <onset>questionable</onset>
        <phaseHint>P</phaseHint>
        <polarity>positive</polarity>
        <evaluationMode>manual</evaluationMode>
        <creationInfo>
          <agencyID>INGV </agencyID>
          <author>SURVEY-INGV</author>
          <creationTime>2023-10-02T20:22:53.000000Z</creationTime>
        </creationInfo>
      </pick>
      <pick publicID="smi:webservices.ingv.it/fdsnws/event/1/query?pickId=695462591">
        <time>
          <value>2023-10-02T20:08:31.790000Z</value>
          <uncertainty>0.1</uncertainty>
        </time>
        <waveformID networkCode="IV" stationCode="VBKW" locationCode="" channelCode="HHZ"></waveformID>
        <methodID>smi:webservices.ingv.it/fdsnws/event/1/query?methodID=9</methodID>
        <onset>questionable</onset>
        <phaseHint>P</phaseHint>
        <polarity>positive</polarity>
        <evaluationMode>manual</evaluationMode>
        <creationInfo>
          <agencyID>INGV </agencyID>
          <author>SURVEY-INGV</author>
          <creationTime>2023-10-02T20:22:53.000000Z</creationTime>
        </creationInfo>
      </pick>
      <pick publicID="smi:webservices.ingv.it/fdsnws/event/1/query?pickId=695462611">
        <time>
          <value>2023-10-02T20:08:31.920000Z</value>
          <uncertainty>0.1</uncertainty>
        </time>
        <waveformID networkCode="IV" stationCode="VBKN" locationCode="" channelCode="HHZ"></waveformID>
        <methodID>smi:webservices.ingv.it/fdsnws/event/1/query?methodID=9</methodID>
        <onset>questionable</onset>
        <phaseHint>P</phaseHint>
        <polarity>positive</polarity>
        <evaluationMode>manual</evaluationMode>
        <creationInfo>
          <agencyID>INGV </agencyID>
          <author>SURVEY-INGV</author>
          <creationTime>2023-10-02T20:22:53.000000Z</creationTime>
        </creationInfo>
      </pick>
      <pick publicID="smi:webservices.ingv.it/fdsnws/event/1/query?pickId=695462621">
        <time>
          <value>2023-10-02T20:08:32.290000Z</value>
          <uncertainty>0.1</uncertainty>
        </time>
        <waveformID networkCode="IV" stationCode="IOCA" locationCode="" channelCode="HHZ"></waveformID>
        <methodID>smi:webservices.ingv.it/fdsnws/event/1/query?methodID=9</methodID>
        <onset>questionable</onset>
        <phaseHint>P</phaseHint>
        <polarity>undecidable</polarity>
        <evaluationMode>manual</evaluationMode>
        <creationInfo>
          <agencyID>INGV </agencyID>
          <author>SURVEY-INGV</author>
          <creationTime>2023-10-02T20:22:53.000000Z</creationTime>
        </creationInfo>
      </pick>
      <pick publicID="smi:webservices.ingv.it/fdsnws/event/1/query?pickId=695462631">
        <time>
          <value>2023-10-02T20:08:33.680000Z</value>
          <uncertainty>0.1</uncertainty>
        </time>
        <waveformID networkCode="IV" stationCode="IFOR" locationCode="" channelCode="HHZ"></waveformID>
        <methodID>smi:webservices.ingv.it/fdsnws/event/1/query?methodID=9</methodID>
        <onset>questionable</onset>
        <phaseHint>P</phaseHint>
        <polarity>negative</polarity>
        <evaluationMode>manual</evaluationMode>
        <creationInfo>
          <agencyID>INGV </agencyID>
          <author>SURVEY-INGV</author>
          <creationTime>2023-10-02T20:22:53.000000Z</creationTime>
        </creationInfo>
      </pick>
      <pick publicID="smi:webservices.ingv.it/fdsnws/event/1/query?pickId=695462651">
        <time>
          <value>2023-10-02T20:08:34.170000Z</value>
          <uncertainty>3.0</uncertainty>
        </time>
        <waveformID networkCode="IV" stationCode="PIGN" locationCode="" channelCode="HHZ"></waveformID>
        <methodID>smi:webservices.ingv.it/fdsnws/event/1/query?methodID=9</methodID>
        <onset>questionable</onset>
        <phaseHint>P</phaseHint>
        <polarity>positive</polarity>
        <evaluationMode>manual</evaluationMode>
        <creationInfo>
          <agencyID>INGV </agencyID>
          <author>SURVEY-INGV</author>
          <creationTime>2023-10-02T20:22:53.000000Z</creationTime>
        </creationInfo>
      </pick>
      <pick publicID="smi:webservices.ingv.it/fdsnws/event/1/query?pickId=695462581">
        <time>
          <value>2023-10-02T20:08:35.260000Z</value>
          <uncertainty>0.6</uncertainty>
        </time>
        <waveformID networkCode="IV" stationCode="OVO" locationCode="" channelCode="HHZ"></waveformID>
        <methodID>smi:webservices.ingv.it/fdsnws/event/1/query?methodID=9</methodID>
        <onset>questionable</onset>
        <phaseHint>S</phaseHint>
        <polarity>undecidable</polarity>
        <evaluationMode>manual</evaluationMode>
        <creationInfo>
          <agencyID>INGV </agencyID>
          <author>SURVEY-INGV</author>
          <creationTime>2023-10-02T20:22:53.000000Z</creationTime>
        </creationInfo>
      </pick>
      <pick publicID="smi:webservices.ingv.it/fdsnws/event/1/query?pickId=695462601">
        <time>
          <value>2023-10-02T20:08:35.730000Z</value>
          <uncertainty>0.6</uncertainty>
        </time>
        <waveformID networkCode="IV" stationCode="VBKW" locationCode="" channelCode="HHZ"></waveformID>
        <methodID>smi:webservices.ingv.it/fdsnws/event/1/query?methodID=9</methodID>
        <onset>questionable</onset>
        <phaseHint>S</phaseHint>
        <polarity>undecidable</polarity>
        <evaluationMode>manual</evaluationMode>
        <creationInfo>
          <agencyID>INGV </agencyID>
          <author>SURVEY-INGV</author>
          <creationTime>2023-10-02T20:22:53.000000Z</creationTime>
        </creationInfo>
      </pick>
      <pick publicID="smi:webservices.ingv.it/fdsnws/event/1/query?pickId=695462661">
        <time>
          <value>2023-10-02T20:08:37.500000Z</value>
          <uncertainty>3.0</uncertainty>
        </time>
        <waveformID networkCode="IV" stationCode="VITU" locationCode="" channelCode="HHZ"></waveformID>
        <methodID>smi:webservices.ingv.it/fdsnws/event/1/query?methodID=9</methodID>
        <onset>questionable</onset>
        <phaseHint>P</phaseHint>
        <polarity>undecidable</polarity>
        <evaluationMode>manual</evaluationMode>
        <creationInfo>
          <agencyID>INGV </agencyID>
          <author>SURVEY-INGV</author>
          <creationTime>2023-10-02T20:22:53.000000Z</creationTime>
        </creationInfo>
      </pick>
      <pick publicID="smi:webservices.ingv.it/fdsnws/event/1/query?pickId=695462671">
        <time>
          <value>2023-10-02T20:08:38.390000Z</value>
          <uncertainty>3.0</uncertainty>
        </time>
        <waveformID networkCode="IV" stationCode="VENT" locationCode="" channelCode="EHZ"></waveformID>
        <methodID>smi:webservices.ingv.it/fdsnws/event/1/query?methodID=9</methodID>
        <onset>questionable</onset>
        <phaseHint>P</phaseHint>
        <polarity>negative</polarity>
        <evaluationMode>manual</evaluationMode>
        <creationInfo>
          <agencyID>INGV </agencyID>
          <author>SURVEY-INGV</author>
          <creationTime>2023-10-02T20:22:53.000000Z</creationTime>
        </creationInfo>
      </pick>
      <pick publicID="smi:webservices.ingv.it/fdsnws/event/1/query?pickId=695462681">
        <time>
          <value>2023-10-02T20:08:38.960000Z</value>
          <uncertainty>3.0</uncertainty>
        </time>
        <waveformID networkCode="IV" stationCode="VAGA" locationCode="" channelCode="HHZ"></waveformID>
        <methodID>smi:webservices.ingv.it/fdsnws/event/1/query?methodID=9</methodID>
        <onset>questionable</onset>
        <phaseHint>P</phaseHint>
        <polarity>positive</polarity>
        <evaluationMode>manual</evaluationMode>
        <creationInfo>
          <agencyID>INGV </agencyID>
          <author>SURVEY-INGV</author>
          <creationTime>2023-10-02T20:22:53.000000Z</creationTime>
        </creationInfo>
      </pick>
      <pick publicID="smi:webservices.ingv.it/fdsnws/event/1/query?pickId=695462641">
        <time>
          <value>2023-10-02T20:08:39.390000Z</value>
          <uncertainty>3.0</uncertainty>
        </time>
        <waveformID networkCode="IV" stationCode="IFOR" locationCode="" channelCode="HHZ"></waveformID>
        <methodID>smi:webservices.ingv.it/fdsnws/event/1/query?methodID=9</methodID>
        <onset>questionable</onset>
        <phaseHint>S</phaseHint>
        <polarity>undecidable</polarity>
        <evaluationMode>manual</evaluationMode>
        <creationInfo>
          <agencyID>INGV </agencyID>
          <author>SURVEY-INGV</author>
          <creationTime>2023-10-02T20:22:53.000000Z</creationTime>
        </creationInfo>
      </pick>
      <pick publicID="smi:webservices.ingv.it/fdsnws/event/1/query?pickId=695462691">
        <time>
          <value>2023-10-02T20:08:39.570000Z</value>
          <uncertainty>3.0</uncertainty>
        </time>
        <waveformID networkCode="IV" stationCode="PTRJ" locationCode="" channelCode="HHZ"></waveformID>
        <methodID>smi:webservices.ingv.it/fdsnws/event/1/query?methodID=9</methodID>
        <onset>questionable</onset>
        <phaseHint>P</phaseHint>
        <polarity>undecidable</polarity>
        <evaluationMode>manual</evaluationMode>
        <creationInfo>
          <agencyID>INGV </agencyID>
          <author>SURVEY-INGV</author>
          <creationTime>2023-10-02T20:22:53.000000Z</creationTime>
