<?xml version='1.0' encoding='utf-8'?>
<q:quakeml xmlns="http://quakeml.org/xmlns/bed/1.2" xmlns:q="http://quakeml.org/xmlns/quakeml/1.2" xmlns:ns0="http://webservices.ingv.it/fdsnws/event/1">
  <eventParameters publicID="smi:local/5bde75e1-5e00-4b59-b7a8-07c5ef78f0fa">
    <event publicID="smi:webservices.ingv.it/fdsnws/event/1/query?eventId=36499161">
      <preferredOriginID>smi:webservices.ingv.it/fdsnws/event/1/query?originId=122124721</preferredOriginID>
      <preferredMagnitudeID>smi:webservices.ingv.it/fdsnws/event/1/query?magnitudeId=131502771</preferredMagnitudeID>
      <type>earthquake</type>
      <description>
        <text>Campi Flegrei</text>
        <type>region name</type>
      </description>
      <creationInfo>
        <agencyID>INGV</agencyID>
        <author>hew10_mole#MOD_EQASSEMBLE</author>
        <creationTime>2023-10-16T10:36:36.000000Z</creationTime>
        <ns0:id_locator>534953</ns0:id_locator>
      </creationInfo>
      <origin publicID="smi:webservices.ingv.it/fdsnws/event/1/query?originId=122124721">
        <time>
          <value>2023-10-16T10:36:21.190000Z</value>
        </time>
        <latitude>
          <value>40.826833</value>
        </latitude>
        <longitude>
          <value>14.142333</value>
        </longitude>
        <depth>
          <value>1860.0</value>
          <uncertainty>100.0</uncertainty>
        </depth>
        <depthType>from location</depthType>
        <methodID>smi:webservices.ingv.it/fdsnws/event/1/query?methodId=271</methodID>
        <earthModelID>smi:webservices.ingv.it/fdsnws/event/1/query?earthModelId=71</earthModelID>
        <quality>
          <associatedPhaseCount>1</associatedPhaseCount>
          <usedPhaseCount>1</usedPhaseCount>
          <associatedStationCount>0</associatedStationCount>
          <usedStationCount>0</usedStationCount>
          <standardError>0.1</standardError>
          <azimuthalGap>59.0</azimuthalGap>
        </quality>
        <type>hypocenter</type>
        <evaluationMode>manual</evaluationMode>
        <evaluationStatus>reviewed</evaluationStatus>
        <creationInfo>
          <agencyID>INGV</agencyID>
          <author>SURVEY-INGV-OV</author>
          <creationTime>2023-10-16T10:58:55.000000Z</creationTime>
          <version>200</version>
          <ns0:quality>DD</ns0:quality>
        </creationInfo>
        <originUncertainty>
          <preferredDescription>horizontal uncertainty</preferredDescription>
          <horizontalUncertainty>200.0</horizontalUncertainty>
          <confidenceLevel>68.0</confidenceLevel>
        </originUncertainty>
      </origin>
      <magnitude publicID="smi:webservices.ingv.it/fdsnws/event/1/query?magnitudeId=131502771">
        <mag>
          <value>3.6</value>
          <uncertainty>0.3</uncertainty>
        </mag>
        <type>Md</type>
        <originID>smi:webservices.ingv.it/fdsnws/event/1/query?originId=122124721</originID>
        <methodID>smi:webservices.ingv.it/fdsnws/event/1/query?methodId=271</methodID>
        <creationInfo>
          <agencyID>INGV</agencyID>
          <author>SURVEY-INGV-OV#SiSmi</author>
          <creationTime>2023-10-16T10:58:55.000000Z</creationTime>
          <ns0:mag_quality>A</ns0:mag_quality>
        </creationInfo>
      </magnitude>
      <pick publicID="smi:webservices.ingv.it/fdsnws/event/1/query?pickId=697848791">
        <time>
          <value>2023-10-16T10:36:23.020000Z</value>
          <uncertainty>0.1</uncertainty>
        </time>
        <waveformID networkCode="IX" stationCode="NAPI" locationCode="01" channelCode="HNZ"></waveformID>
        <methodID>smi:webservices.ingv.it/fdsnws/event/1/query?methodID=9</methodID>
        <onset>questionable</onset>
        <phaseHint>P</phaseHint>
        <polarity>positive</polarity>
        <evaluationMode>manual</evaluationMode>
        <creationInfo>
          <agencyID>INGV </agencyID>
          <author>SURVEY-INGV</author>
          <creationTime>2023-10-16T10:48:11.000000Z</creationTime>
        </creationInfo>
      </pick>
      <pick publicID="smi:webservices.ingv.it/fdsnws/event/1/query?pickId=697848811">
        <time>
          <value>2023-10-16T10:36:23.140000Z</value>
          <uncertainty>0.1</uncertainty>
        </time>
        <waveformID networkCode="IV" stationCode="CFMN" locationCode="" channelCode="HNZ"></waveformID>
        <methodID>smi:webservices.ingv.it/fdsnws/event/1/query?methodID=9</methodID>
        <onset>questionable</onset>
        <phaseHint>P</phaseHint>
        <polarity>positive</polarity>
        <evaluationMode>manual</evaluationMode>
        <creationInfo>
          <agencyID>INGV </agencyID>
          <author>SURVEY-INGV</author>
          <creationTime>2023-10-16T10:48:11.000000Z</creationTime>
        </creationInfo>
      </pick>
      <pick publicID="smi:webservices.ingv.it/fdsnws/event/1/query?pickId=697848821">
        <time>
          <value>2023-10-16T10:36:23.790000Z</value>
          <uncertainty>0.1</uncertainty>
        </time>
        <waveformID networkCode="IV" stationCode="CQUE" locationCode="" channelCode="HHZ"></waveformID>
        <methodID>smi:webservices.ingv.it/fdsnws/event/1/query?methodID=9</methodID>
        <onset>questionable</onset>
        <phaseHint>P</phaseHint>
        <polarity>positive</polarity>
        <evaluationMode>manual</evaluationMode>
        <creationInfo>
          <agencyID>INGV </agencyID>
          <author>SURVEY-INGV</author>
          <creationTime>2023-10-16T10:48:11.000000Z</creationTime>
        </creationInfo>
      </pick>
      <pick publicID="smi:webservices.ingv.it/fdsnws/event/1/query?pickId=697848841">
        <time>
          <value>2023-10-16T10:36:23.920000Z</value>
          <uncertainty>0.3</uncertainty>
        </time>
        <waveformID networkCode="IV" stationCode="CMIS" locationCode="" channelCode="HHZ"></waveformID>
        <methodID>smi:webservices.ingv.it/fdsnws/event/1/query?methodID=9</methodID>
        <onset>questionable</onset>
        <phaseHint>P</phaseHint>
        <polarity>positive</polarity>
        <evaluationMode>manual</evaluationMode>
        <creationInfo>
          <agencyID>INGV </agencyID>
          <author>SURVEY-INGV</author>
          <creationTime>2023-10-16T10:48:11.000000Z</creationTime>
        </creationInfo>
      </pick>
      <pick publicID="smi:webservices.ingv.it/fdsnws/event/1/query?pickId=697848801">
        <time>
          <value>2023-10-16T10:36:24.270000Z</value>
          <uncertainty>0.3</uncertainty>
        </time>
        <waveformID networkCode="IX" stationCode="NAPI" locationCode="01" channelCode="HNZ"></waveformID>
        <methodID>smi:webservices.ingv.it/fdsnws/event/1/query?methodID=9</methodID>
        <onset>questionable</onset>
        <phaseHint>S</phaseHint>
        <polarity>undecidable</polarity>
        <evaluationMode>manual</evaluationMode>
        <creationInfo>
          <agencyID>INGV </agencyID>
          <author>SURVEY-INGV</author>
          <creationTime>2023-10-16T10:48:11.000000Z</creationTime>
        </creationInfo>
      </pick>
      <pick publicID="smi:webservices.ingv.it/fdsnws/event/1/query?pickId=697848831">
        <time>
          <value>2023-10-16T10:36:26.060000Z</value>
          <uncertainty>0.3</uncertainty>
        </time>
        <waveformID networkCode="IV" stationCode="CQUE" locationCode="" channelCode="HHZ"></waveformID>
        <methodID>smi:webservices.ingv.it/fdsnws/event/1/query?methodID=9</methodID>
        <onset>questionable</onset>
        <phaseHint>S</phaseHint>
        <polarity>undecidable</polarity>
        <evaluationMode>manual</evaluationMode>
        <creationInfo>
          <agencyID>INGV </agencyID>
          <author>SURVEY-INGV</author>
          <creationTime>2023-10-16T10:48:11.000000Z</creationTime>
        </creationInfo>
      </pick>
      <pick publicID="smi:webservices.ingv.it/fdsnws/event/1/query?pickId=697848851">
        <time>
          <value>2023-10-16T10:36:26.410000Z</value>
          <uncertainty>0.1</uncertainty>
        </time>
        <waveformID networkCode="IV" stationCode="VBKW" locationCode="" channelCode="HHZ"></waveformID>
        <methodID>smi:webservices.ingv.it/fdsnws/event/1/query?methodID=9</methodID>
        <onset>questionable</onset>
        <phaseHint>P</phaseHint>
        <polarity>positive</polarity>
        <evaluationMode>manual</evaluationMode>
        <creationInfo>
          <agencyID>INGV </agencyID>
          <author>SURVEY-INGV</author>
          <creationTime>2023-10-16T10:48:11.000000Z</creationTime>
        </creationInfo>
      </pick>
      <pick publicID="smi:webservices.ingv.it/fdsnws/event/1/query?pickId=697848861">
        <time>
          <value>2023-10-16T10:36:26.550000Z</value>
          <uncertainty>0.3</uncertainty>
        </time>
        <waveformID networkCode="IV" stationCode="VTIR" locationCode="" channelCode="HHZ"></waveformID>
        <methodID>smi:webservices.ingv.it/fdsnws/event/1/query?methodID=9</methodID>
        <onset>questionable</onset>
        <phaseHint>P</phaseHint>
        <polarity>positive</polarity>
        <evaluationMode>manual</evaluationMode>
        <creationInfo>
          <agencyID>INGV </agencyID>
          <author>SURVEY-INGV</author>
          <creationTime>2023-10-16T10:48:11.000000Z</creationTime>
        </creationInfo>
      </pick>
      <pick publicID="smi:webservices.ingv.it/fdsnws/event/1/query?pickId=697848871">
        <time>
          <value>2023-10-16T10:36:30.750000Z</value>
          <uncertainty>0.6</uncertainty>
        </time>
        <waveformID networkCode="IV" stationCode="VTIR" locationCode="" channelCode="HHZ"></waveformID>
        <methodID>smi:webservices.ingv.it/fdsnws/event/1/query?methodID=9</methodID>
        <onset>questionable</onset>
        <phaseHint>S</phaseHint>
        <polarity>undecidable</polarity>
        <evaluationMode>manual</evaluationMode>
        <creationInfo>
          <agencyID>INGV </agencyID>
          <author>SURVEY-INGV</author>
          <creationTime>2023-10-16T10:48:11.000000Z</creationTime>
        </creationInfo>
      </pick>
      <pick publicID="smi:webservices.ingv.it/fdsnws/event/1/query?pickId=697848881">
        <time>
          <value>2023-10-16T10:36:33.690000Z</value>
          <uncertainty>3.0</uncertainty>
        </time>
        <waveformID networkCode="IV" stationCode="VITU" locationCode="" channelCode="HHZ"></waveformID>
        <methodID>smi:webservices.ingv.it/fdsnws/event/1/query?methodID=9</methodID>
        <onset>questionable</onset>
        <phaseHint>P</phaseHint>
        <polarity>negative</polarity>
        <evaluationMode>manual</evaluationMode>
        <creationInfo>
          <agencyID>INGV </agencyID>
          <author>SURVEY-INGV</author>
          <creationTime>2023-10-16T10:48:11.000000Z</creationTime>
        </creationInfo>
      </pick>
      <pick publicID="smi:webservices.ingv.it/fdsnws/event/1/query?pickId=697848891">
        <time>
          <value>2023-10-16T10:36:34.410000Z</value>
          <uncertainty>3.0</uncertainty>
        </time>
        <waveformID networkCode="IV" stationCode="PTRJ" locationCode="" channelCode="HHZ"></waveformID>
        <methodID>smi:webservices.ingv.it/fdsnws/event/1/query?methodID=9</methodID>
        <onset>questionable</onset>
        <phaseHint>P</phaseHint>
        <polarity>undecidable</polarity>
        <evaluationMode>manual</evaluationMode>
        <creationInfo>
          <agencyID>INGV </agencyID>
          <author>SURVEY-INGV</author>
          <creationTime>2023-10-16T10:48:11.000000Z</creationTime>
        </creationInfo>
      </pick>
      <pick publicID="smi:webservices.ingv.it/fdsnws/event/1/query?pickId=697848901">
        <time>
          <value>2023-10-16T10:36:36.620000Z</value>
          <uncertainty>3.0</uncertainty>
        </time>
        <waveformID networkCode="IV" stationCode="PSB1" locationCode="" channelCode="HHZ"></waveformID>
        <methodID>smi:webservices.ingv.it/fdsnws/event/1/query?methodID=9</methodID>
        <onset>questionable</onset>
        <phaseHint>P</phaseHint>
        <polarity>negative</polarity>
        <evaluationMode>manual</evaluationMode>
        <creationInfo>
          <agencyID>INGV </agencyID>
          <author>SURVEY-INGV</author>
          <creationTime>2023-10-16T10:48:11.000000Z</creationTime>
        </creationInfo>
      </pick>
      <pick publicID="smi:webservices.ingv.it/fdsnws/event/1/query?pickId=697848911">
        <time>
          <value>2023-10-16T10:36:38.480000Z</value>
          <uncertainty>3.0</uncertainty>
        </time>
        <waveformID networkCode="IV" stationCode="MIDA" locationCode="" channelCode="HHZ"></waveformID>
        <methodID>smi:webservices.ingv.it/fdsnws/event/1/query?methodID=9</methodID>
        <onset>questionable</onset>
        <phaseHint>P</phaseHint>
        <polarity>undecidable</polarity>
        <evaluationMode>manual</evaluationMode>
        <creationInfo>
          <agencyID>INGV </agencyID>
          <author>SURVEY-INGV</author>
          <creationTime>2023-10-16T10:48:11.000000Z</creationTime>
        </creationInfo>
      </pick>
    </event>
    <event publicID="smi:webservices.ingv.it/fdsnws/event/1/query?eventId=36365741">
      <preferredOriginID>smi:webservices.ingv.it/fdsnws/event/1/query?originId=121687631</preferredOriginID>
      <preferredMagnitudeID>smi:webservices.ingv.it/fdsnws/event/1/query?magnitudeId=130985731</preferredMagnitudeID>
      <type>earthquake</type>
      <description>
        <text>Campi Flegrei</text>
        <type>region name</type>
      </description>
      <creationInfo>
        <agencyID>INGV</agencyID>
        <author>hew10_mole#MOD_EQASSEMBLE</author>
        <creationTime>2023-10-02T20:08:48.000000Z</creationTime>
        <ns0:id_locator>532208</ns0:id_locator>
      </creationInfo>
      <origin publicID="smi:webservices.ingv.it/fdsnws/event/1/query?originId=121687631">
        <time>
          <value>2023-10-02T20:08:26.650000Z</value>
        </time>
        <latitude>
          <value>40.830167</value>
        </latitude>
        <longitude>
          <value>14.1495</value>
        </longitude>
        <depth>
          <value>2610.0</value>
          <uncertainty>100.0</uncertainty>
        </depth>
        <depthType>from location</depthType>
        <methodID>smi:webservices.ingv.it/fdsnws/event/1/query?methodId=271</methodID>
        <earthModelID>smi:webservices.ingv.it/fdsnws/event/1/query?earthModelId=71</earthModelID>
        <quality>
          <associatedPhaseCount>1</associatedPhaseCount>
          <usedPhaseCount>1</usedPhaseCount>
          <associatedStationCount>0</associatedStationCount>
          <usedStationCount>0</usedStationCount>
          <standardError>0.07</standardError>
          <azimuthalGap>120.0</azimuthalGap>
        </quality>
        <type>hypocenter</type>
        <evaluationMode>manual</evaluationMode>
        <evaluationStatus>reviewed</evaluationStatus>
        <creationInfo>
          <agencyID>INGV</agencyID>
          <author>SURVEY-INGV-OV</author>
          <creationTime>2023-10-02T20:27:56.000000Z</creationTime>
          <version>200</version>
          <ns0:quality>DD</ns0:quality>
        </creationInfo>
        <originUncertainty>
          <preferredDescription>horizontal uncertainty</preferredDescription>
          <horizontalUncertainty>200.0</horizontalUncertainty>
          <confidenceLevel>68.0</confidenceLevel>
        </originUncertainty>
      </origin>
      <magnitude publicID="smi:webservices.ingv.it/fdsnws/event/1/query?magnitudeId=130985731">
        <mag>
          <value>4.0</value>
          <uncertainty>0.3</uncertainty>
        </mag>
        <type>Md</type>
        <originID>smi:webservices.ingv.it/fdsnws/event/1/query?originId=121687631</originID>
        <methodID>smi:webservices.ingv.it/fdsnws/event/1/query?methodId=271</methodID>
        <creationInfo>
          <agencyID>INGV</agencyID>
          <author>SURVEY-INGV-OV#SiSmi</author>
          <creationTime>2023-10-02T20:27:56.000000Z</creationTime>
          <ns0:mag_quality>A</ns0:mag_quality>
        </creationInfo>
      </magnitude>
      <pick publicID="smi:webservices.ingv.it/fdsnws/event/1/query?pickId=695462481">
        <time>
          <value>2023-10-02T20:08:27.920000Z</value>
          <uncertainty>0.1</uncertainty>
        </time>
        <waveformID networkCode="IV" stationCode="CSFT" locationCode="" channelCode="HHZ"></waveformID>
        <methodID>smi:webservices.ingv.it/fdsnws/event/1/query?methodID=9</methodID>
        <onset>questionable</onset>
        <phaseHint>P</phaseHint>
        <polarity>negative</polarity>
        <evaluationMode>manual</evaluationMode>
        <creationInfo>
          <agencyID>INGV </agencyID>
          <author>SURVEY-INGV</author>
          <creationTime>2023-10-02T20:22:53.000000Z</creationTime>
        </creationInfo>
      </pick>
      <pick publicID="smi:webservices.ingv.it/fdsnws/event/1/query?pickId=695462501">
        <time>
          <value>2023-10-02T20:08:28.240000Z</value>
          <uncertainty>0.1</uncertainty>
        </time>
        <waveformID networkCode="IV" stationCode="CPOZ" locationCode="" channelCode="HNZ"></waveformID>
        <methodID>smi:webservices.ingv.it/fdsnws/event/1/query?methodID=9</methodID>
        <onset>questionable</onset>
        <phaseHint>P</phaseHint>
        <polarity>negative</polarity>
        <evaluationMode>manual</evaluationMode>
        <creationInfo>
          <agencyID>INGV </agencyID>
          <author>SURVEY-INGV</author>
          <creationTime>2023-10-02T20:22:53.000000Z</creationTime>
        </creationInfo>
      </pick>
      <pick publicID="smi:webservices.ingv.it/fdsnws/event/1/query?pickId=695462521">
        <time>
          <value>2023-10-02T20:08:28.380000Z</value>
          <uncertainty>0.1</uncertainty>
        </time>
        <waveformID networkCode="IX" stationCode="NAPI" locationCode="01" channelCode="HNZ"></waveformID>
        <methodID>smi:webservices.ingv.it/fdsnws/event/1/query?methodID=9</methodID>
        <onset>questionable</onset>
        <phaseHint>P</phaseHint>
        <polarity>positive</polarity>
        <evaluationMode>manual</evaluationMode>
        <creationInfo>
          <agencyID>INGV </agencyID>
          <author>SURVEY-INGV</author>
          <creationTime>2023-10-02T20:22:53.000000Z</creationTime>
        </creationInfo>
      </pick>
      <pick publicID="smi:webservices.ingv.it/fdsnws/event/1/query?pickId=695462491">
        <time>
          <value>2023-10-02T20:08:28.560000Z</value>
          <uncertainty>0.6</uncertainty>
        </time>
        <waveformID networkCode="IV" stationCode="CSFT" locationCode="" channelCode="HHZ"></waveformID>
        <methodID>smi:webservices.ingv.it/fdsnws/event/1/query?methodID=9</methodID>
        <onset>questionable</onset>
        <phaseHint>S</phaseHint>
        <polarity>undecidable</polarity>
        <evaluationMode>manual</evaluationMode>
        <creationInfo>
          <agencyID>INGV </agencyID>
          <author>SURVEY-INGV</author>
          <creationTime>2023-10-02T20:22:53.000000Z</creationTime>
        </creationInfo>
      </pick>
      <pick publicID="smi:webservices.ingv.it/fdsnws/event/1/query?pickId=695462541">
        <time>
          <value>2023-10-02T20:08:28.740000Z</value>
          <uncertainty>0.1</uncertainty>
        </time>
        <waveformID networkCode="IV" stationCode="CFMN" locationCode="" channelCode="HNZ"></waveformID>
        <methodID>smi:webservices.ingv.it/fdsnws/event/1/query?methodID=9</methodID>
        <onset>questionable</onset>
        <phaseHint>P</phaseHint>
        <polarity>undecidable</polarity>
        <evaluationMode>manual</evaluationMode>
        <creationInfo>
          <agencyID>INGV </agencyID>
          <author>SURVEY-INGV</author>
          <creationTime>2023-10-02T20:22:53.000000Z</creationTime>
        </creationInfo>
